SCD 1                   
1 22490U 93009B   16292.22828332  .00000295  00000-0  31518-4 0  9996
2 22490  24.9711 353.8127 0042878 301.0125 115.7617 14.44460501250580
TECHSAT 1B (GO-32)      
1 25397U 98043D   16292.41939995  .00000016  00000-0  25793-4 0  9996
2 25397  98.5794 234.2291 0001529  30.9902 329.1367 14.23605651949391
SCD 2                   
1 25504U 98060A   16291.96923411  .00000286  00000-0  30373-4 0  9999
2 25504  24.9949 197.0370 0017105 336.4140 116.3211 14.43983136949635
LANDSAT 7               
1 25682U 99020A   16292.27182786  .00000327  00000-0  82671-4 0  9994
2 25682  98.2031   0.9294 0001105  73.2479 286.8835 14.57116913931361
DLR-TUBSAT              
1 25757U 99029B   16291.96399440  .00000104  00000-0  37615-4 0  9999
2 25757  98.4184 197.6005 0013740 323.1524  36.8722 14.51342716921335
QUIKSCAT                
1 25789U 99034A   16291.62458982  .00000004  00000-0  19524-4 0  9998
2 25789  98.6069 118.0489 0001664  59.9344 300.2001 14.27260086902590
TERRA                   
1 25994U 99068A   16292.28218742  .00000216  00000-0  57861-4 0  9995
2 25994  98.2010   4.7890 0001130  90.7231 269.4094 14.57119206895446
EO-1                    
1 26619U 00075A   16292.16114384  .00000033  00000-0  14768-4 0  9990
2 26619  97.8647 326.5008 0010225 149.1355 211.0444 14.64312979848113
MAROC-TUBSAT            
1 27004U 01056D   16291.93090344 -.00000040  00000-0  38470-5 0  9998
2 27004  99.3214  72.9591 0019037 245.2262 225.9825 13.70118287742878
AQUA                    
1 27424U 02022A   16291.97224723  .00000281  00000-0  72302-4 0  9999
2 27424  98.2093 230.6596 0001799 108.8523 326.9317 14.57118571768952
IRS-P6 (RESOURCESAT-1)  
1 28051U 03046A   16292.44471547  .00000039  00000-0  37594-4 0  9999
2 28051  98.6505   7.2818 0003164 325.9805  34.1169 14.21661542674938
TANSUO 1 (TS 1)         
1 28220U 04012A   16291.86702029  .00001129  00000-0  98262-4 0  9998
2 28220  97.6612 245.4379 0009488 238.2742 121.7556 14.98869541680127
FORMOSAT-2 (ROCSAT 2)   
1 28254U 04018A   16292.50276719  .00000106  00000-0  10000-3 0  9992
2 28254  98.9107 352.9248 0003019  94.2718 326.4159 14.00682742634764
AURA                    
1 28376U 04026A   16291.89474660  .00000289  00000-0  74271-4 0  9995
2 28376  98.2098 232.7450 0001562  83.3309 276.8067 14.57103979651999
IRS-P5 (CARTOSAT-1)     
1 28649U 05017A   16292.40835211 -.00001071  00000-0 -12405-3 0  9992
2 28649  97.8883   4.2509 0003173 101.6324 258.5280 14.83427394620132
SINAH 1                 
1 28893U 05043D   16291.91662659  .00000092  00000-0  27363-4 0  9991
2 28893  97.8487  96.0327 0014997 192.1504 167.9339 14.61399936584819
EROS B                  
1 29079U 06014A   16292.53472400  .00002802  00000-0  10210-3 0  9992
2 29079  97.3325  49.7960 0004115 202.1229 220.0279 15.29009147581398
RESURS-DK 1             
1 29228U 06021A   16292.50989195  .00000402  00000-0  37992-4 0  9998
2 29228  69.9369 352.8933 0006104 320.5356  39.5359 15.02017645571812
ARIRANG-2 (KOMPSAT-2)   
1 29268U 06031A   16292.48887057  .00000322  00000-0  73096-4 0  9990
2 29268  98.1184 190.0385 0019178  46.3029 313.9757 14.62205660545670
LAPAN-TUBSAT            
1 29709U 07001A   16292.41768414  .00000226  00000-0  34728-4 0  9998
2 29709  97.6731 270.6908 0013093 157.6446 202.5353 14.82002235528173
CARTOSAT-2 (IRS-P7)     
1 29710U 07001B   16292.47252862  .00000405  00000-0  62208-4 0  9994
2 29710  97.9611 350.6709 0001424 138.9268 221.2055 14.78681909527477
HAIYANG-1B              
1 31113U 07010A   16292.42183766  .00000020  00000-0  24554-4 0  9990
2 31113  98.5957 344.9854 0013455 191.8683 168.2187 14.30152438496918
COSMO-SKYMED 1          
1 31598U 07023A   16292.48648659 -.00001119  00000-0 -13411-3 0  9995
2 31598  97.8748 113.9292 0001393  74.3591 285.7827 14.82151007506642
TERRASAR-X              
1 31698U 07026A   16292.33178241 -.00000410  00000-0 -16326-4 0  9990
2 31698  97.4462 297.4557 0001567  88.2950  91.7228 15.19148922518152
WORLDVIEW-1 (WV-1)      
1 32060U 07041A   16292.44498083  .00003797  00000-0  15794-3 0  9998
2 32060  97.3830  49.8862 0002149  42.1444   0.0081 15.24377872505426
YAOGAN 3                
1 32289U 07055A   16292.46539149  .00000061  00000-0  14748-4 0  9997
2 32289  97.9916 289.1420 0001573  67.8183 292.3178 14.80749329482960
COSMO-SKYMED 2          
1 32376U 07059A   16292.52024843 -.00000161  00000-0 -13740-4 0  9999
2 32376  97.8752 113.9629 0001262  81.8456 278.2920 14.82164435479395
RADARSAT-2              
1 32382U 07061A   16292.57063190  .00000028  00000-0  27761-4 0  9990
2 32382  98.5766 297.7072 0001208  83.6434  24.8487 14.29985217461769
CARTOSAT-2A             
1 32783U 08021A   16292.45028421  .00000073  00000-0  17034-4 0  9999
2 32783  97.9631 350.6869 0013576  24.1613 336.0230 14.78665992457411
JASON 2 (OSTM)          
1 33105U 08032A   16291.94548492 -.00000065  00000-0 -18166-4 0  9998
2 33105  66.0405 264.7690 0008033 267.3965 125.0412 12.80930298389514
RAPIDEYE 2              
1 33312U 08040A   16292.35658431  .00000283  00000-0  44152-4 0  9992
2 33312  97.8390  13.4450 0013920  61.0756 299.1853 14.79970143439601
RAPIDEYE 5              
1 33313U 08040B   16292.37950196  .00000575  00000-0  82823-4 0  9999
2 33313  97.8429  11.0501 0015005 292.8654  67.0974 14.79979505439554
RAPIDEYE 1              
1 33314U 08040C   16292.50285848  .00000261  00000-0  41176-4 0  9998
2 33314  97.8415  13.1405 0025487  71.8347 288.5641 14.79968476439618
RAPIDEYE 3              
1 33315U 08040D   16292.33757697  .00000362  00000-0  54609-4 0  9993
2 33315  97.8395  10.6090 0012269  14.3306 345.8253 14.79970541439554
RAPIDEYE 4              
1 33316U 08040E   16292.39114181  .00000260  00000-0  41165-4 0  9995
2 33316  97.8369  10.1575 0010383 317.7224  42.3190 14.79965671439550
HUANJING 1A (HJ-1A)     
1 33320U 08041A   16292.41890861  .00000526  00000-0  82172-4 0  9998
2 33320  97.9700 354.7738 0027599  84.8924 275.5438 14.76676252437104
HUANJING 1B (HJ-1B)     
1 33321U 08041B   16292.43688783  .00000606  00000-0  93065-4 0  9991
2 33321  97.9744 355.8298 0036099 100.3800 260.1482 14.76744141437098
GEOEYE 1                
1 33331U 08042A   16292.26547564  .00000150  00000-0  37692-4 0  9993
2 33331  98.1376   4.7460 0009040 310.4153  49.6263 14.64103426433708
THEOS                   
1 33396U 08049A   16292.48660170  .00000169  00000-0  10000-3 0  9997
2 33396  98.7115 357.9221 0001266  88.6634   1.7102 14.20040969417172
COSMO-SKYMED 3          
1 33412U 08054A   16292.50756848 -.00001111  00000-0 -13308-3 0  9997
2 33412  97.8751 113.9507 0001541  85.3485 274.7860 14.82159215431855
YAOGAN 4                
1 33446U 08061A   16292.52731985  .00000267  00000-0  45086-4 0  9997
2 33446  97.5894 297.9627 0016464  16.0795 344.0935 14.76428215424362
GOSAT (IBUKI)           
1 33492U 09002A   16292.38610758 -.00000086  00000-0 -65791-5 0  9999
2 33492  98.1073  40.3006 0001111  69.8733 290.2583 14.67526949414364
YAOGAN 6                
1 34839U 09021A   16292.54169006  .00001719  00000-0  70368-4 0  9996
2 34839  97.1813 347.4042 0030951  97.5453 262.9304 15.25195853415755
DEIMOS-1                
1 35681U 09041A   16292.48826766  .00000308  00000-0  57383-4 0  9995
2 35681  97.9750 183.8642 0002390  48.8148 311.3257 14.71608588387593
DUBAISAT-1              
1 35682U 09041B   16292.47681161  .00000250  00000-0  51155-4 0  9990
2 35682  97.8279 157.6985 0010882 200.3245 159.7545 14.68508799386734
OCEANSAT 2              
1 35931U 09051A   16291.88941220  .00000234  00000-0  70460-4 0  9999
2 35931  98.3151  23.4496 0001998 181.7314 178.3874 14.50853533374223
WORLDVIEW-2 (WV-2)      
1 35946U 09055A   16292.31627552  .00000147  00000-0  63442-4 0  9992
2 35946  98.5320   4.7558 0001545  48.9084 311.2224 14.37735908368754
SMOS                    
1 36036U 09059A   16291.61347281  .00000143  00000-0  59605-4 0  9999
2 36036  98.4444 116.7680 0001159  91.7248 268.4073 14.39776382365575
YAOGAN 7                
1 36110U 09069A   16292.44399382  .00000129  00000-0  26898-4 0  9996
2 36110  98.1832  82.1324 0024629 163.0823 197.1227 14.75213915369241
TANDEM-X                
1 36605U 10030A   16292.38436501 -.00001415  00000-0 -64206-4 0  9999
2 36605  97.4462 297.5071 0001312  83.6737  23.7188 15.19145775350907
CARTOSAT 2B             
1 36795U 10035A   16292.35247664  .00000353  00000-0  55216-4 0  9990
2 36795  97.9605 350.5126 0015823  92.3210 267.9813 14.78660213338442
YAOGAN 10               
1 36834U 10038A   16292.42218781  .00000298  00000-0  45482-4 0  9995
2 36834  97.9193 285.6641 0001565  65.0121 295.1258 14.80761059334708
COSMO-SKYMED 4          
1 37216U 10060A   16292.40208861  .00000139  00000-0  24018-4 0  9997
2 37216  97.8760 113.8465 0001307  76.0064 284.1246 14.82166288321920
HAIYANG 2A              
1 37781U 11043A   16292.49546307 -.00000358  00000-0 -30890-3 0  9994
2 37781  99.3368 301.4348 0000219  20.1599 339.9559 13.78714318260674
RASAT                   
1 37791U 11044D   16292.41571587  .00000168  00000-0  40641-4 0  9999
2 37791  98.1452  20.9911 0022211 158.8642 201.3483 14.64559118276383
MEGHA-TROPIQUES         
1 37838U 11058A   16292.03259977  .00000366  00000-0  57407-4 0  9998
2 37838  19.9766 167.5802 0009698 285.6871  74.2463 14.09699013258897
SRMSAT                  
1 37841U 11058D   16291.93097884  .00000348  00000-0  46066-4 0  9996
2 37841  19.9711 156.0609 0011800 300.1737 177.1284 14.10554957258940
YAOGAN 13               
1 37941U 11072A   16292.41038353  .00003536  00000-0  17592-3 0  9996
2 37941  97.4707 217.1467 0004941  79.6116  59.1604 15.18255522270983
PLEIADES 1A             
1 38012U 11076F   16292.38546939  .00000112  00000-0  33958-4 0  9992
2 38012  98.1899   5.0219 0001144  71.0180 289.1151 14.58555471257617
